OBJECT_NAME,OBJECT_ID,EPOCH,MEAN_MOTION,ECCENTRICITY,INCLINATION,RA_OF_ASC_NODE,ARG_OF_PERICENTER,MEAN_ANOMALY,EPHEMERIS_TYPE,CLASSIFICATION_TYPE,NORAD_CAT_ID,ELEMENT_SET_NO,REV_AT_EPOCH,BSTAR,MEAN_MOTION_DOT,MEAN_MOTION_DDOT
ONEWEB-0359,2021-090G,2026-06-30T04:58:58.091520,13.20774139,.00022503,87.9194,271.8402,94.6013,265.5378,0,U,49285,999,23225,.11953277E-3,.62E-6,0
ONEWEB-0360,2021-090H,2026-06-30T06:33:32.749344,13.20770625,.00021346,87.9195,271.8334,101.5156,258.6217,0,U,49286,999,23157,.17741022E-3,.85E-6,0
ONEWEB-0361,2021-090J,2026-06-30T06:06:52.653312,13.20772043,.00020773,87.9195,271.8352,96.2901,263.8469,0,U,49287,999,23202,.20604415E-3,.97E-6,0
ONEWEB-0362,2021-090K,2026-06-30T08:51:52.280640,13.19725622,.00021371,87.9181,302.3521,105.6426,254.4942,0,U,49288,999,22865,.21728766E-3,.1E-5,0
ONEWEB-0363,2021-090L,2026-06-30T06:28:41.980512,13.20771504,.00018914,87.9196,271.8322,90.6523,269.4827,0,U,49289,999,23203,.25735817E-3,.118E-5,0
ONEWEB-0364,2021-090M,2026-06-30T07:24:26.964288,13.20772248,.00020647,87.9194,271.8325,99.8209,260.3157,0,U,49290,999,23317,.11501134E-3,.6E-6,0
ONEWEB-0365,2021-090N,2026-06-30T09:05:31.152192,13.19725754,.00019263,87.9189,302.3397,102.6932,257.4417,0,U,49291,999,22816,.24928202E-4,.23E-6,0
ONEWEB-0366,2021-090P,2026-06-30T07:11:42.216288,13.14503393,.00020056,87.8971,287.0933,99.6846,260.4510,0,U,49292,999,22928,.27821981E-3,.116E-5,0
ONEWEB-0367,2021-090Q,2026-06-30T06:27:29.748384,13.20772090,.00020421,87.9194,271.8341,105.3385,254.7974,0,U,49293,999,23155,.44402297E-3,.194E-5,0
ONEWEB-0368,2021-090R,2026-06-30T07:39:00.233280,13.20771178,.00013111,87.9185,271.8330,101.6409,258.4872,0,U,49294,999,23271,.39671626E-4,.29E-6,0
ONEWEB-0369,2021-090S,2026-06-30T08:58:41.869344,13.19725957,.00018536,87.9179,302.3471,101.5992,258.5349,0,U,49295,999,22815,.33008863E-3,.145E-5,0
ONEWEB-0370,2021-090T,2026-06-30T06:40:49.380384,13.20771758,.00023212,87.9196,271.8318,100.5523,259.5872,0,U,49296,999,23159,.30641286E-3,.138E-5,0
ONEWEB-0371,2021-090U,2026-06-30T09:10:02.976096,13.19724026,.00019799,87.9189,302.3390,102.3634,257.7720,0,U,49297,999,22819,-.60211205E-4,-.11E-6,0
ONEWEB-0372,2021-090V,2026-06-30T06:26:04.003296,13.20773181,.00019921,87.9197,271.8355,100.2093,259.9265,0,U,49298,999,23156,.33819423E-3,.15E-5,0
ONEWEB-0373,2021-090W,2026-06-30T07:02:38.162400,13.20772278,.00020982,87.9191,271.8304,98.2147,261.9224,0,U,49299,999,23275,.22875335E-3,.106E-5,0
ONEWEB-0374,2021-090X,2026-06-30T08:43:02.330688,13.14503503,.00018145,87.8976,287.0723,82.4621,277.6715,0,U,49300,999,22929,.20995035E-3,.91E-6,0
ONEWEB-0375,2021-090Y,2026-06-30T06:45:40.271904,13.20772868,.00020217,87.9195,271.8247,83.3327,276.8036,0,U,49301,999,23225,.23040418E-3,.107E-5,0
ONEWEB-0376,2021-090Z,2026-06-30T09:07:47.135424,13.19725654,.00018575,87.9187,302.3392,105.5241,254.6097,0,U,49302,999,22819,-.4787579E-5,.11E-6,0
ONEWEB-0377,2021-090AA,2026-06-30T06:26:27.461760,13.20772542,.00021078,87.9196,271.8291,93.4334,266.7041,0,U,49303,999,23224,.24827331E-3,.114E-5,0
ONEWEB-0378,2021-090AB,2026-06-30T06:55:34.247712,13.20771496,.00019462,87.9192,271.8297,96.7105,263.4250,0,U,49304,999,23151,.23149313E-3,.107E-5,0
ONEWEB-0379,2021-090AC,2026-06-30T06:46:34.660704,13.14503112,.00018564,87.8973,287.0987,97.5856,262.5485,0,U,49305,999,22928,.71828061E-3,.279E-5,0
ONEWEB-0380,2021-090AD,2026-06-30T09:03:15.035040,13.19726176,.00020728,87.9182,302.3441,95.2498,264.8871,0,U,49306,999,22816,.10706723E-3,.56E-6,0
ONEWEB-0381,2021-090AE,2026-06-30T06:21:25.014240,13.20773477,.00019626,87.9198,271.8349,92.1613,267.9745,0,U,49307,999,23155,.33926027E-3,.151E-5,0
ONEWEB-0382,2021-090AF,2026-06-30T07:51:07.422336,13.20771010,.00018168,87.9195,271.8162,92.3181,267.8160,0,U,49308,999,23155,-.40765105E-4,-.4E-7,0
ONEWEB-0383,2021-090AG,2026-06-30T06:37:27.011712,13.14502406,.00018017,87.8976,287.0918,97.8286,262.3048,0,U,49309,999,22931,.69166839E-3,.269E-5,0
ONEWEB-0384,2021-090AH,2026-06-30T07:34:10.185888,13.20813013,.00016767,87.9197,271.8624,89.9271,270.2055,0,U,49310,999,23156,.20246481E-3,.95E-6,0
ONEWEB-0385,2021-090AJ,2026-06-30T07:41:24.345024,13.20773731,.00019376,87.9194,271.8231,94.5892,265.5463,0,U,49311,999,23153,.50252481E-4,.33E-6,0
ONEWEB-0386,2021-090AK,2026-06-30T06:16:34.494240,13.20772832,.00018304,87.9199,271.8263,94.6294,265.5049,0,U,49312,999,23154,.2664909E-3,.121E-5,0
ONEWEB-0387,2021-090AL,2026-06-30T05:54:44.688384,13.20773216,.0002194,87.9187,271.8497,90.4752,269.6632,0,U,49313,999,23154,.2912169E-4,.25E-6,0
ONEWEB-0388,2021-090AM,2026-06-30T08:56:25.528416,13.19725681,.00018317,87.9184,302.3432,96.6862,263.4480,0,U,49314,999,22815,.37189371E-4,.28E-6,0
ONEWEB-0389,2021-132A,2026-06-30T11:42:04.053024,13.17649258,.00019756,87.9132,3.2216,79.7577,280.3777,0,U,50469,999,21983,.36006346E-4,.27E-6,0
ONEWEB-0390,2021-132B,2026-06-30T11:44:29.860800,13.17649384,.00020599,87.9132,3.2222,92.3186,267.8181,0,U,50470,999,21983,.11661818E-3,.58E-6,0
ONEWEB-0391,2021-132C,2026-06-30T11:46:55.707456,13.17649132,.0002482,87.9134,3.2316,76.0226,284.1181,0,U,50471,999,21983,.1265177E-3,.62E-6,0
ONEWEB-0392,2021-132D,2026-06-30T12:30:40.504896,13.17650383,.00020686,87.9143,3.1950,79.6090,280.5275,0,U,50472,999,21987,.74961789E-4,.42E-6,0
ONEWEB-0393,2021-132E,2026-06-30T11:55:24.962880,13.17650325,.00019289,87.9133,3.2159,85.1658,274.9693,0,U,50473,999,21986,.17984019E-4,.2E-6,0
ONEWEB-0394,2021-132F,2026-06-30T10:51:24.327360,13.18688578,.0001745,87.9180,332.8033,91.4745,268.6587,0,U,50474,999,22334,.22001661E-3,.1E-5,0
ONEWEB-0395,2021-132G,2026-06-30T12:27:19.925568,13.11418371,.00020722,87.8878,18.4124,86.9273,273.2092,0,U,50475,999,21746,.18283985E-3,.77E-6,0
ONEWEB-0396,2021-132H,2026-06-30T10:41:42.888192,13.18685862,.00018091,87.9186,332.8175,89.7921,270.3419,0,U,50476,999,22338,.22988525E-3,.104E-5,0
ONEWEB-0397,2021-132J,2026-06-30T11:03:33.916608,13.18686322,.00016897,87.9182,332.8146,88.9526,271.1800,0,U,50477,999,22336,.11450065E-3,.58E-6,0
ONEWEB-0398,2021-132K,2026-06-30T11:40:55.972416,13.11414629,.00021239,87.8884,18.4104,92.3273,267.8098,0,U,50478,999,21735,-.1213828E-2,-.417E-5,0
ONEWEB-0399,2021-132L,2026-06-30T11:21:24.853248,13.11415449,.00018592,87.8885,18.4242,72.6246,287.5086,0,U,50479,999,21734,.77484497E-3,.287E-5,0
ONEWEB-0400,2021-132M,2026-06-30T10:32:00.177216,13.18686364,.00020119,87.9185,332.8086,97.7750,262.3611,0,U,50480,999,22335,.17850116E-3,.83E-6,0
ONEWEB-0401,2021-132N,2026-06-30T09:48:17.931168,13.18685434,.00016077,87.9184,332.8119,96.8209,263.3106,0,U,50481,999,22335,.433728E-6,.13E-6,0
ONEWEB-0402,2021-132P,2026-06-30T10:44:08.619072,13.18686656,.00013629,87.9182,332.7931,94.9367,265.1921,0,U,50482,999,22338,.13851462E-3,.68E-6,0
ONEWEB-0403,2021-132Q,2026-06-30T11:20:33.889344,13.18685595,.00019011,87.9183,332.8127,91.1491,268.9859,0,U,50483,999,22334,-.8826774E-5,.9E-7,0
ONEWEB-0404,2021-132R,2026-06-30T12:44:24.988128,13.11417019,.00020288,87.8882,18.4104,80.0304,280.1053,0,U,50484,999,21744,.71669527E-3,.267E-5,0
ONEWEB-0405,2021-132S,2026-06-30T11:39:58.010112,13.18681457,.00022632,87.9186,332.7949,101.3008,258.8378,0,U,50485,999,22374,.2577915E-2,.1029E-4,0
ONEWEB-0406,2021-132T,2026-06-30T11:27:50.738112,13.18685855,.00020975,87.9179,332.8121,81.1998,278.9371,0,U,50486,999,22337,-.47149287E-4,-.6E-7,0
ONEWEB-0407,2021-132U,2026-06-30T11:18:08.254368,13.18687190,.00017509,87.9183,332.8061,100.8600,259.2730,0,U,50487,999,22331,.47815774E-4,.32E-6,0
ONEWEB-0409,2021-132V,2026-06-30T10:52:06.900960,13.11417101,.00020776,87.8886,18.4146,83.6252,276.5112,0,U,50488,999,21732,.12061705E-2,.44E-5,0
ONEWEB-0412,2021-132W,2026-06-30T11:01:08.160672,13.18685923,.00015286,87.9178,332.8166,95.3033,264.8273,0,U,50489,999,22340,.19499017E-3,.9E-6,0
ONEWEB-0413,2021-132X,2026-06-30T11:08:25.971936,13.18686588,.00015921,87.9171,332.8132,100.6933,259.4379,0,U,50490,999,22334,.14596495E-3,.7E-6,0
ONEWEB-0414,2021-132Y,2026-06-30T10:46:34.313664,13.18686303,.00017266,87.9184,332.7994,91.8185,268.3145,0,U,50491,999,22337,.37650681E-4,.28E-6,0
ONEWEB-0417,2021-132Z,2026-06-30T10:58:42.492000,13.18686505,.00019833,87.9175,332.8163,89.7747,270.3613,0,U,50492,999,22335,.16845829E-3,.79E-6,0
ONEWEB-0418,2021-132AA,2026-06-30T11:13:04.084032,13.18685238,.00020314,87.9179,332.8148,88.9011,271.2354,0,U,50493,999,22341,.61695513E-4,.37E-6,0
ONEWEB-0419,2021-132AB,2026-06-30T11:40:08.796288,13.18666468,.00021497,87.9183,332.8107,93.9685,266.1693,0,U,50494,999,22333,.74318672E-4,.42E-6,0
ONEWEB-0420,2021-132AC,2026-06-30T10:48:59.105376,13.18686787,.00017914,87.9175,332.8199,101.6609,258.4724,0,U,50495,999,22332,.16476584E-3,.78E-6,0
ONEWEB-0421,2021-132AD,2026-06-30T10:39:17.837280,13.18673584,.00014788,87.9177,332.8191,94.7291,265.4010,0,U,50496,999,22336,.63995998E-2,.2536E-4,0
ONEWEB-0424,2021-132AE,2026-06-30T11:32:42.345888,13.18686024,.00022212,87.9180,332.8103,97.3628,262.7757,0,U,50497,999,22339,.11729091E-3,.59E-6,0
ONEWEB-0426,2021-132AF,2026-06-30T10:33:12.649536,13.18685657,.0001827,87.9183,332.8096,73.5302,286.6031,0,U,50498,999,22333,.16233429E-3,.77E-6,0
ONEWEB-0427,2021-132AG,2026-06-30T11:30:16.748064,13.18685911,.00019274,87.9185,332.7907,88.8761,271.2592,0,U,50499,999,22336,.360637E-5,.14E-6,0
ONEWEB-0429,2021-132AH,2026-06-30T11:10:50.698848,13.18686063,.000177,87.9176,332.8168,98.4101,261.7232,0,U,50500,999,22333,.69642296E-4,.4E-6,0
ONEWEB-0430,2021-132AJ,2026-06-30T10:53:51.748224,13.18687893,.00018656,87.9175,332.8177,104.2321,255.9018,0,U,50501,999,22337,.2843556E-3,.125E-5,0
ONEWEB-0432,2021-132AK,2026-06-28T20:11:44.786976,13.17237683,.00031309,87.9191,333.1233,99.3895,260.7590,0,U,50502,999,22311,.25353201E-1,.9808E-4,0
ONEWEB-0440,2021-132AL,2026-06-30T09:33:43.459488,13.18686076,.00015202,87.9183,332.8257,96.9702,263.1603,0,U,50503,999,22331,.73815329E-4,.42E-6,0
